ONEWEB-0572             
1 55151U 23004M   26202.99435585 -.00000049  00000+0 -15890-3 0  9996
2 55151  87.9154 358.9415 0001994  91.5669 268.5691 13.17647761172063
ONEWEB-0573             
1 55152U 23004N   26203.32166724  .00000060  00000+0  11844-3 0  9997
2 55152  87.9193 328.4821 0002724  90.9473 269.1972 13.18684571174329
ONEWEB-0588             
1 55153U 23004P   26202.32853002  .00000076  00000+0  15939-3 0  9995
2 55153  87.9191 328.6789 0002023  84.5848 275.5515 13.18687109174199
ONEWEB-0598             
1 55154U 23004Q   26203.02788337 -.00000193  00000+0 -58127-3 0  9990
2 55154  87.8889  14.1308 0002538  95.0866 265.0552 13.11415249170463
ONEWEB-0599             
1 55155U 23004R   26202.87960229  .00000021  00000+0  19654-4 0  9996
2 55155  87.9153 358.9628 0001947 100.5080 259.6271 13.17647462172050
ONEWEB-0614             
1 55156U 23004S   26203.02279840  .00000025  00000+0  34396-4 0  9991
2 55156  87.8886  14.1395 0001662  85.6270 274.5048 13.11415021170406
ONEWEB-0616             
1 55157U 23004T   26202.99772412  .00000032  00000+0  49798-4 0  9990
2 55157  87.9154 358.9436 0002060 120.8440 239.2894 13.17647884172280
ONEWEB-0617             
1 55158U 23004U   26203.01092320  .00000555  00000+0  15297-2 0  9993
2 55158  87.8894  14.1349 0001744  80.2301 279.9023 13.11416989170421
ONEWEB-0618             
1 55159U 23004V   26202.84119510  .00006082  00000+0  33787-3 0  9991
2 55159  86.9106 163.5637 0013354 152.4164 207.7788 15.13447576187500
ONEWEB-0619             
1 55160U 23004W   26202.87791361  .00000088  00000+0  19447-3 0  9993
2 55160  87.9166 358.9511 0001415  95.7645 264.3648 13.17647455172168
ONEWEB-0620             
1 55161U 23004X   26203.00584590  .00000551  00000+0  15177-2 0  9994
2 55161  87.8888  14.1425 0002085  88.9361 271.2006 13.11417128170391
ONEWEB-0621             
1 55162U 23004Y   26202.72778355 -.00000529  00000+0 -15295-2 0  9995
2 55162  87.8893  14.1899 0001632  86.3645 273.7669 13.11414738170337
ONEWEB-0622             
1 55163U 23004Z   26203.03805479 -.00000523  00000+0 -15109-2 0  9997
2 55163  87.8898  14.1311 0001952  69.7238 290.4100 13.11415828170360
ONEWEB-0623             
1 55164U 23004AA  26202.87285887  .00000057  00000+0  11238-3 0  9994
2 55164  87.9152 358.9781 0001377  71.0898 289.0383 13.17648341172154
ONEWEB-0624             
1 55165U 23004AB  26203.32722936 -.00000105  00000+0 -32507-3 0  9995
2 55165  87.8976 343.5933 0001719  93.3829 266.7497 13.12928275172686
ONEWEB-0625             
1 55166U 23004AC  26202.71085765  .00000011  00000+0 -41522-5 0  9994
2 55166  87.9153 359.0068 0001788  98.9991 261.1343 13.17648073172121
ONEWEB-0626             
1 55167U 23004AD  26202.85261710 -.00000037  00000+0 -12736-3 0  9998
2 55167  87.9155 358.9781 0002172  96.4607 263.6771 13.17648258172148
ONEWEB-0627             
1 55168U 23004AE  26202.99267382  .00000036  00000+0  59010-4 0  9999
2 55168  87.9157 358.9506 0001508  81.0810 279.0492 13.17648947172162
ONEWEB-0628             
1 55169U 23004AF  26203.32162924  .00000097  00000+0  23354-3 0  9992
2 55169  87.8977 343.6690 0001270  85.9931 274.1343 13.12439001172648
ONEWEB-0629             
1 55170U 23004AG  26202.43664430  .00000094  00000+0  21014-3 0  9992
2 55170  87.9153 359.0571 0001552  96.0744 264.0565 13.17650571172099
ONEWEB-0631             
1 55171U 23004AH  26203.30818097  .00000039  00000+0  66596-4 0  9994
2 55171  87.9200 328.4536 0002230  87.5357 272.6031 13.18687030174303
ONEWEB-0709             
1 55172U 23004AJ  26203.22456915  .00000430  00000+0  11778-2 0  9998
2 55172  87.8889  14.1013 0002719  93.9056 266.2382 13.11418746170464
ONEWEB-0710             
1 55173U 23004AK  26202.98254745  .00000011  00000+0 -46927-5 0  9991
2 55173  87.9153 358.9437 0001804  88.3322 271.8016 13.17648859172168
ONEWEB-0711             
1 55174U 23004AL  26203.04313854 -.00000559  00000+0 -16126-2 0  9990
2 55174  87.8892  14.1257 0001625  68.3928 291.7373 13.11417143170406
ONEWEB-0713             
1 55175U 23004AM  26202.98550438  .00000031  00000+0  52284-4 0  9994
2 55175  87.8894  14.1394 0001718  79.5441 280.5880 13.11418780170382
ONEWEB-0715             
1 55176U 23004AN  26202.44634037  .00000009  00000+0 -11742-4 0  9994
2 55176  87.8892  14.2471 0002508  86.9918 273.1497 13.11418597170352
ONEWEB-0716             
1 55177U 23004AP  26202.67205174  .00000037  00000+0  63114-4 0  9996
2 55177  87.9153 359.0084 0001832 100.9471 259.1867 13.17649269172124
ONEWEB-0717             
1 55178U 23004AQ  26202.42736345  .00000086  00000+0  18730-3 0  9996
2 55178  87.9164 359.0478 0001904  78.4069 281.7277 13.17648334172146
ONEWEB-0719             
1 55179U 23004AR  26202.66529221  .00000139  00000+0  32520-3 0  9998
2 55179  87.9164 358.9808 0001727  99.0163 261.1164 13.17648158172128
ONEWEB-0530             
1 55796U 23029A   26203.16531676 -.00000017  00000+0 -74931-4 0  9993
2 55796  87.9169 267.4957 0001674  88.0198 272.1128 13.20770037165764
