OBJECT_NAME,OBJECT_ID,EPOCH,MEAN_MOTION,ECCENTRICITY,INCLINATION,RA_OF_ASC_NODE,ARG_OF_PERICENTER,MEAN_ANOMALY,EPHEMERIS_TYPE,CLASSIFICATION_TYPE,NORAD_CAT_ID,ELEMENT_SET_NO,REV_AT_EPOCH,BSTAR,MEAN_MOTION_DOT,MEAN_MOTION_DDOT
ONEWEB-0572,2023-004M,2026-07-21T23:51:52.345440,13.17647761,.00019945,87.9154,358.9415,91.5669,268.5691,0,U,55151,999,17206,-.15890249E-3,-.49E-6,0
ONEWEB-0573,2023-004N,2026-07-22T07:43:12.049536,13.18684571,.00027245,87.9193,328.4821,90.9473,269.1972,0,U,55152,999,17432,.11843805E-3,.6E-6,0
ONEWEB-0588,2023-004P,2026-07-21T07:53:04.993728,13.18687109,.00020232,87.9191,328.6789,84.5848,275.5515,0,U,55153,999,17419,.1593945E-3,.76E-6,0
ONEWEB-0598,2023-004Q,2026-07-22T00:40:09.123168,13.11415249,.00025382,87.8889,14.1308,95.0866,265.0552,0,U,55154,999,17046,-.58126836E-3,-.193E-5,0
ONEWEB-0599,2023-004R,2026-07-21T21:06:37.637856,13.17647462,.00019471,87.9153,358.9628,100.5080,259.6271,0,U,55155,999,17205,.19653639E-4,.21E-6,0
ONEWEB-0614,2023-004S,2026-07-22T00:32:49.781760,13.11415021,.00016627,87.8886,14.1395,85.6270,274.5048,0,U,55156,999,17040,.34396338E-4,.25E-6,0
ONEWEB-0616,2023-004T,2026-07-21T23:56:43.363968,13.17647884,.00020609,87.9154,358.9436,120.8440,239.2894,0,U,55157,999,17228,.49797663E-4,.32E-6,0
ONEWEB-0617,2023-004U,2026-07-22T00:15:43.764480,13.11416989,.00017444,87.8894,14.1349,80.2301,279.9023,0,U,55158,999,17042,.15297283E-2,.555E-5,0
ONEWEB-0618,2023-004V,2026-07-21T20:11:19.256640,15.13447576,.00133549,86.9106,163.5637,152.4164,207.7788,0,U,55159,999,18750,.33786934E-3,.6082E-4,0
ONEWEB-0619,2023-004W,2026-07-21T21:04:11.735904,13.17647455,.00014152,87.9166,358.9511,95.7645,264.3648,0,U,55160,999,17216,.19447435E-3,.88E-6,0
ONEWEB-0620,2023-004X,2026-07-22T00:08:25.085760,13.11417128,.00020856,87.8888,14.1425,88.9361,271.2006,0,U,55161,999,17039,.15176847E-2,.551E-5,0
ONEWEB-0621,2023-004Y,2026-07-21T17:28:00.498720,13.11414738,.00016322,87.8893,14.1899,86.3645,273.7669,0,U,55162,999,17033,-.15294953E-2,-.529E-5,0
ONEWEB-0622,2023-004Z,2026-07-22T00:54:47.933856,13.11415828,.00019523,87.8898,14.1311,69.7238,290.4100,0,U,55163,999,17036,-.15109004E-2,-.523E-5,0
ONEWEB-0623,2023-004AA,2026-07-21T20:56:55.006368,13.17648341,.00013774,87.9152,358.9781,71.0898,289.0383,0,U,55164,999,17215,.11237548E-3,.57E-6,0
ONEWEB-0624,2023-004AB,2026-07-22T07:51:12.616704,13.12928275,.00017198,87.8976,343.5933,93.3829,266.7497,0,U,55165,999,17268,-.32506599E-3,-.105E-5,0
ONEWEB-0625,2023-004AC,2026-07-21T17:03:38.100960,13.17648073,.00017881,87.9153,359.0068,98.9991,261.1343,0,U,55166,999,17212,-.4152194E-5,.11E-6,0
ONEWEB-0626,2023-004AD,2026-07-21T20:27:46.117440,13.17648258,.00021721,87.9155,358.9781,96.4607,263.6771,0,U,55167,999,17214,-.1273632E-3,-.37E-6,0
ONEWEB-0627,2023-004AE,2026-07-21T23:49:27.018048,13.17648947,.00015088,87.9157,358.9506,81.0810,279.0492,0,U,55168,999,17216,.59010011E-4,.36E-6,0
ONEWEB-0628,2023-004AF,2026-07-22T07:43:08.766336,13.12439001,.000127,87.8977,343.6690,85.9931,274.1343,0,U,55169,999,17264,.23353621E-3,.97E-6,0
ONEWEB-0629,2023-004AG,2026-07-21T10:28:46.067520,13.17650571,.00015525,87.9153,359.0571,96.0744,264.0565,0,U,55170,999,17209,.21013617E-3,.94E-6,0
ONEWEB-0631,2023-004AH,2026-07-22T07:23:46.835808,13.18687030,.00022302,87.9200,328.4536,87.5357,272.6031,0,U,55171,999,17430,.66596485E-4,.39E-6,0
ONEWEB-0709,2023-004AJ,2026-07-22T05:23:22.774560,13.11418746,.00027197,87.8889,14.1013,93.9056,266.2382,0,U,55172,999,17046,.11777504E-2,.43E-5,0
ONEWEB-0710,2023-004AK,2026-07-21T23:34:52.099680,13.17648859,.00018048,87.9153,358.9437,88.3322,271.8016,0,U,55173,999,17216,-.4692728E-5,.11E-6,0
ONEWEB-0711,2023-004AL,2026-07-22T01:02:07.169856,13.11417143,.0001625,87.8892,14.1257,68.3928,291.7373,0,U,55174,999,17040,-.16126165E-2,-.559E-5,0
ONEWEB-0713,2023-004AM,2026-07-21T23:39:07.578432,13.11418780,.00017184,87.8894,14.1394,79.5441,280.5880,0,U,55175,999,17038,.52284367E-4,.31E-6,0
ONEWEB-0715,2023-004AN,2026-07-21T10:42:43.807968,13.11418597,.00025082,87.8892,14.2471,86.9918,273.1497,0,U,55176,999,17035,-.11742337E-4,.9E-7,0
ONEWEB-0716,2023-004AP,2026-07-21T16:07:45.270336,13.17649269,.00018321,87.9153,359.0084,100.9471,259.1867,0,U,55177,999,17212,.63113833E-4,.37E-6,0
ONEWEB-0717,2023-004AQ,2026-07-21T10:15:24.202080,13.17648334,.0001904,87.9164,359.0478,78.4069,281.7277,0,U,55178,999,17214,.1873035E-3,.86E-6,0
ONEWEB-0719,2023-004AR,2026-07-21T15:58:01.246944,13.17648158,.00017278,87.9164,358.9808,99.0163,261.1164,0,U,55179,999,17212,.32520321E-3,.139E-5,0
ONEWEB-0530,2023-029A,2026-07-22T03:58:03.368064,13.20770037,.00016749,87.9169,267.4957,88.0198,272.1128,0,U,55796,999,16576,-.74930837E-4,-.17E-6,0
